#aV2022 11 27  0  0  0.00000000     288 DD+AD WGS84 FIT  NGA
## 2238      0.00000000   300.00000000 59910 0.0000000000000
+   31     1  2  3  4  5  6  7  8  9 10 11 12 13 14 15 16 17
+         18 19 20 21 22 23 24 25 26 27 29 30 31 32  0  0  0
+          0  0  0  0  0  0  0  0  0  0  0  0  0  0  0  0  0
+          0  0  0  0  0  0  0  0  0  0  0  0  0  0  0  0  0
+          0  0  0  0  0  0  0  0  0  0  0  0  0  0  0  0  0
++         2  2  2  2  2  2  2  2  2  2  2  2  2  2  2  2  2
++         2  2  2  2  2  2  2  2  2  2  2  2  2  2  0  0  0
++         0  0  0  0  0  0  0  0  0  0  0  0  0  0  0  0  0
++         0  0  0  0  0  0  0  0  0  0  0  0  0  0  0  0  0
++         0  0  0  0  0  0  0  0  0  0  0  0  0  0  0  0  0
%c cc cc ccc ccc cccc cccc cccc cccc ccccc ccccc ccccc ccccc
%c cc cc ccc ccc cccc cccc cccc cccc ccccc ccccc ccccc ccccc
%f  0.0000000  0.000000000  0.00000000000  0.000000000000000
%f  0.0000000  0.000000000  0.00000000000  0.000000000000000
%i    0    0    0    0      0      0      0      0         0
%i    0    0    0    0      0      0      0      0         0
/*      NGA, ST. LOUIS,MO.                                  
/*   EPHEMERIS COMPUTED FROM 2 DAYS OF DATA                 
/*   EPOCHA v8 SMOOTHER                                     
/*   G2139 IERS2010 SATIGS SATAPC                           
*  2022 11 27 15 15  0.00000000
P  1 -13206.946090   9187.542072  20745.652430    245.667752                    
V  1  -2176.878498 -26996.807985  10743.670773     -0.054582                    
P  2  11485.047123 -13419.507117 -19269.471896   -635.866140                    
V  2   4908.221317  25322.843761 -14053.146056      0.018460                    
P  3 -23256.424929  11829.441194   4534.061658   -374.450753                    
V  3   3610.603962  -5255.391607  31480.333868     -0.012630                    
P  4 -19820.300011   3169.515989 -17446.420559    -78.932234                    
V  4 -18715.849341 -11888.485088  18996.443352      0.068655                    
P  5  21195.790404  -1608.237908 -16169.000603   -105.909101                    
V  5 -15246.479449  13302.637798 -21424.562196     -0.014538                    
P  6   6245.008450  24694.002290  -7311.705119    528.037949                    
V  6  -1365.758410   9464.223405  30589.825278      0.085791                    
P  7  -6836.123993  22479.409030 -11469.406126    282.091585                    
V  7  -4074.962457 -15195.662587 -26873.213626     -0.049508                    
P  8 -24834.427227  -4896.553640   8604.026336    -95.868066                    
V  8  -8899.103226  -6665.436219 -28965.295266     -0.018148                    
P  9  -9587.723593  12357.138954 -21551.777431   -262.306340                    
V  9 -24474.358698 -11854.533775   4060.892606      0.058390                    
P 10   2732.002254 -17777.899342  19592.145214    -13.677677                    
V 10  21090.009757 -12711.054826 -14900.990679     -0.015970                    
P 11  12085.657193  16309.298310 -17141.044427    -46.695158                    
V 11  -1393.333692  21774.979620  19689.223597     -0.065740                    
P 12  24070.796799  -9774.980541   4977.988594   -309.234641                    
V 12  -4481.835063   5620.077504  31130.410662     -0.045071                    
P 13  22979.357076  13171.919557   2877.568304    432.091866                    
V 13   1837.148310   4146.837446 -31531.818953      0.067230                    
P 14  -5538.732588  18602.505507  18086.566154    -77.018857                    
V 14 -20516.805545  10599.194271 -17305.375741      0.056552                    
P 15  25199.722986   2081.938135   8130.874646     -8.867450                    
V 15   9264.234764   6638.752555 -28548.485574      0.032056                    
P 16 -18748.878036  -4488.482756 -18753.119069   -526.730607                    
V 16  19721.832174 -11961.325436 -16659.610609      0.002621                    
P 17   3945.744066  17703.617484  19817.717028    681.415008                    
V 17 -21481.104857 -11174.891694  14664.402365      0.030750                    
P 18   5748.021658 -23836.597378 -10026.368782    -37.657610                    
V 18   2853.836262  12645.451802 -28561.138552     -0.142696                    
P 19  14899.642149  18730.681094  11563.558051    242.986228                    
V 19 -13606.073068  -6411.467892  27115.658340      0.050746                    
P 20  12845.478713   9075.730203 -21364.145543    467.289386                    
V 20 -19565.690815  18973.274091  -3925.418095     -0.024822                    
P 21 -15688.466191   -659.141954  22079.774906    155.138219                    
V 21  -3998.316019 -26247.505219  -2968.612046     -0.008366                    
P 22 -16858.509643 -18281.203946   9999.143745    373.165321                    
V 22  11472.276376   4268.184339  28179.500843      0.077833                    
P 23  13316.782750 -19504.962353  12005.369653     -0.678012                    
V 23  13725.338120  -7070.713632 -26836.766583      0.004023                    
P 24  14967.297551  -4959.983764  21003.171321     40.944677                    
V 24   4680.351633  27214.104645   3462.130187     -0.165787                    
P 25  19608.440802 -17189.233954  -4467.738232    396.693010                    
V 25   6194.762972   -419.673602  31131.943802      0.036509                    
P 26  -9619.854457 -12528.856632 -21447.568239    236.987918                    
V 26  21662.002885 -16297.070013    137.637065      0.010381                    
P 27 -23238.916113 -13151.834338  -2288.073104    167.920989                    
V 27   3288.686821   -796.947239 -31515.999487     -0.095143                    
P 29  12182.599849  -9663.805584 -21584.644923   -570.122292                    
V 29  23226.592644  14243.891605   6668.088102     -0.026224                    
P 30    953.245454  26394.419720   -575.974260   -536.228802                    
V 30  -3880.874639   -643.498903 -31338.690295      0.004850                    
P 31  -7314.647253 -23724.609211  -8919.628186   -201.512063                    
V 31   2610.734503 -11375.812072  29079.026775     -0.011906                    
P 32  -8199.673889 -17989.713294  17982.699274   -310.320284                    
V 32  20871.894592   8434.907638  17911.301284     -0.128539                    
EOF
